STARLINK-2755           
1 48479U 21040BD  25310.59595087  .00019395  00000+0  13164-2 0  9991
2 48479  53.0550  24.2079 0001687  86.0052 274.1130 15.06425729247933
STARLINK-2706           
1 48481U 21040BF  25310.65034154  .00023635  00000+0  15984-2 0  9998
2 48481  53.0552  34.2416 0001196  83.4747 276.6378 15.06443545247792
STARLINK-2525           
1 48482U 21040BG  25310.61714523  .00018147  00000+0  12333-2 0  9997
2 48482  53.0550  34.1116 0001347  98.1586 261.9556 15.06420896247798
STARLINK-2531           
1 48483U 21040BH  25310.61346787  .00016098  00000+0  10964-2 0  9992
2 48483  53.0561  34.1280 0001220  96.1013 264.0115 15.06425499247795
STARLINK-2500           
1 48485U 21040BK  25310.62084093  .00016684  00000+0  11359-2 0  9994
2 48485  53.0550  34.0962 0001399  72.9837 287.1305 15.06412298247794
STARLINK-2494           
1 48487U 21040BM  25310.62820020  .00003189  00000+0  23281-3 0  9998
2 48487  53.0554  34.0605 0001947 107.3723 252.7479 15.06409512247807
STARLINK-2063           
1 48553U 21041A   25310.33978782 -.00001211  00000+0 -62427-4 0  9992
2 48553  53.0557 325.3606 0001374 113.3093 246.8040 15.06404328246618
STARLINK-2139           
1 48554U 21041B   25310.31033909  .00010048  00000+0  69243-3 0  9992
2 48554  53.0548 325.7949 0001464  83.4318 276.6838 15.06404695246602
STARLINK-2145           
1 48555U 21041C   25310.37572253  .00009863  00000+0  67993-3 0  9992
2 48555  53.0551 335.1971 0001537  96.7202 263.3962 15.06409716246472
STARLINK-2151           
1 48556U 21041D   25310.36466502  .00009662  00000+0  66646-3 0  9992
2 48556  53.0562 335.2460 0001318  92.0432 268.0708 15.06411776246479
STARLINK-2155           
1 48557U 21041E   25310.56830497  .00001987  00000+0  15224-3 0  9991
2 48557  53.0547 324.3310 0001365  93.3634 266.7511 15.06407720246646
STARLINK-2166           
1 48558U 21041F   25310.36558612  .00004410  00000+0  31476-3 0  9997
2 48558  53.0571 325.2408 0001785  96.1323 263.9870 15.06402245245759
STARLINK-2187           
1 48562U 21041K   25310.34347134  .00004856  00000+0  34460-3 0  9995
2 48562  53.0546 325.3441 0001505  91.3937 268.7224 15.06403875246614
STARLINK-2188           
1 48563U 21041L   25310.36190439  .00009394  00000+0  64826-3 0  9993
2 48563  53.0542 325.2575 0001519  88.3426 271.7737 15.06426835246616
STARLINK-2190           
1 48564U 21041M   25310.35452433  .00003239  00000+0  23619-3 0  9995
2 48564  53.0554 325.2932 0001422  96.2441 263.8710 15.06407473246615
STARLINK-2214           
1 48566U 21041P   25310.37202446 -.00002074  00000+0 -12042-3 0  9992
2 48566  53.0559 335.1836 0001402  86.2690 273.8460 15.06396218246479
STARLINK-2217           
1 48568U 21041R   25310.46508338  .00028132  00000+0  18983-2 0  9993
2 48568  53.0550 324.7962 0001504  90.6421 269.4740 15.06432902246620
