[{"OBJECT_NAME":"STARLINK-2755","OBJECT_ID":"2021-040BD","EPOCH":"2025-11-06T14:18:10.155168","MEAN_MOTION":15.06425729,"ECCENTRICITY":0.0001687,"INCLINATION":53.055,"RA_OF_ASC_NODE":24.2079,"ARG_OF_PERICENTER":86.0052,"MEAN_ANOMALY":274.113,"EPHEMERIS_TYPE":0,"CLASSIFICATION_TYPE":"U","NORAD_CAT_ID":48479,"ELEMENT_SET_NO":999,"REV_AT_EPOCH":24793,"BSTAR":0.0013164,"MEAN_MOTION_DOT":0.00019395,"MEAN_MOTION_DDOT":0},{"OBJECT_NAME":"STARLINK-2706","OBJECT_ID":"2021-040BF","EPOCH":"2025-11-06T15:36:29.509056","MEAN_MOTION":15.06443545,"ECCENTRICITY":0.0001196,"INCLINATION":53.0552,"RA_OF_ASC_NODE":34.2416,"ARG_OF_PERICENTER":83.4747,"MEAN_ANOMALY":276.6378,"EPHEMERIS_TYPE":0,"CLASSIFICATION_TYPE":"U","NORAD_CAT_ID":48481,"ELEMENT_SET_NO":999,"REV_AT_EPOCH":24779,"BSTAR":0.0015984,"MEAN_MOTION_DOT":0.00023635,"MEAN_MOTION_DDOT":0},{"OBJECT_NAME":"STARLINK-2525","OBJECT_ID":"2021-040BG","EPOCH":"2025-11-06T14:48:41.347872","MEAN_MOTION":15.06420896,"ECCENTRICITY":0.0001347,"INCLINATION":53.055,"RA_OF_ASC_NODE":34.1116,"ARG_OF_PERICENTER":98.1586,"MEAN_ANOMALY":261.9556,"EPHEMERIS_TYPE":0,"CLASSIFICATION_TYPE":"U","NORAD_CAT_ID":48482,"ELEMENT_SET_NO":999,"REV_AT_EPOCH":24779,"BSTAR":0.0012333,"MEAN_MOTION_DOT":0.00018147,"MEAN_MOTION_DDOT":0},{"OBJECT_NAME":"STARLINK-2531","OBJECT_ID":"2021-040BH","EPOCH":"2025-11-06T14:43:23.623968","MEAN_MOTION":15.06425499,"ECCENTRICITY":0.000122,"INCLINATION":53.0561,"RA_OF_ASC_NODE":34.128,"ARG_OF_PERICENTER":96.1013,"MEAN_ANOMALY":264.0115,"EPHEMERIS_TYPE":0,"CLASSIFICATION_TYPE":"U","NORAD_CAT_ID":48483,"ELEMENT_SET_NO":999,"REV_AT_EPOCH":24779,"BSTAR":0.0010964,"MEAN_MOTION_DOT":0.00016098,"MEAN_MOTION_DDOT":0},{"OBJECT_NAME":"STARLINK-2500","OBJECT_ID":"2021-040BK","EPOCH":"2025-11-06T14:54:00.656352","MEAN_MOTION":15.06412298,"ECCENTRICITY":0.0001399,"INCLINATION":53.055,"RA_OF_ASC_NODE":34.0962,"ARG_OF_PERICENTER":72.9837,"MEAN_ANOMALY":287.1305,"EPHEMERIS_TYPE":0,"CLASSIFICATION_TYPE":"U","NORAD_CAT_ID":48485,"ELEMENT_SET_NO":999,"REV_AT_EPOCH":24779,"BSTAR":0.0011359,"MEAN_MOTION_DOT":0.00016684,"MEAN_MOTION_DDOT":0},{"OBJECT_NAME":"STARLINK-2494","OBJECT_ID":"2021-040BM","EPOCH":"2025-11-06T15:04:36.497280","MEAN_MOTION":15.06409512,"ECCENTRICITY":0.0001947,"INCLINATION":53.0554,"RA_OF_ASC_NODE":34.0605,"ARG_OF_PERICENTER":107.3723,"MEAN_ANOMALY":252.7479,"EPHEMERIS_TYPE":0,"CLASSIFICATION_TYPE":"U","NORAD_CAT_ID":48487,"ELEMENT_SET_NO":999,"REV_AT_EPOCH":24780,"BSTAR":0.00023281,"MEAN_MOTION_DOT":3.189e-5,"MEAN_MOTION_DDOT":0},{"OBJECT_NAME":"STARLINK-2063","OBJECT_ID":"2021-041A","EPOCH":"2025-11-06T08:09:17.667648","MEAN_MOTION":15.06404328,"ECCENTRICITY":0.0001374,"INCLINATION":53.0557,"RA_OF_ASC_NODE":325.3606,"ARG_OF_PERICENTER":113.3093,"MEAN_ANOMALY":246.804,"EPHEMERIS_TYPE":0,"CLASSIFICATION_TYPE":"U","NORAD_CAT_ID":48553,"ELEMENT_SET_NO":999,"REV_AT_EPOCH":24661,"BSTAR":-6.2427e-5,"MEAN_MOTION_DOT":-1.211e-5,"MEAN_MOTION_DDOT":0},{"OBJECT_NAME":"STARLINK-2139","OBJECT_ID":"2021-041B","EPOCH":"2025-11-06T07:26:53.297376","MEAN_MOTION":15.06404695,"ECCENTRICITY":0.0001464,"INCLINATION":53.0548,"RA_OF_ASC_NODE":325.7949,"ARG_OF_PERICENTER":83.4318,"MEAN_ANOMALY":276.6838,"EPHEMERIS_TYPE":0,"CLASSIFICATION_TYPE":"U","NORAD_CAT_ID":48554,"ELEMENT_SET_NO":999,"REV_AT_EPOCH":24660,"BSTAR":0.00069243,"MEAN_MOTION_DOT":0.00010048,"MEAN_MOTION_DDOT":0},{"OBJECT_NAME":"STARLINK-2145","OBJECT_ID":"2021-041C","EPOCH":"2025-11-06T09:01:02.426592","MEAN_MOTION":15.06409716,"ECCENTRICITY":0.0001537,"INCLINATION":53.0551,"RA_OF_ASC_NODE":335.1971,"ARG_OF_PERICENTER":96.7202,"MEAN_ANOMALY":263.3962,"EPHEMERIS_TYPE":0,"CLASSIFICATION_TYPE":"U","NORAD_CAT_ID":48555,"ELEMENT_SET_NO":999,"REV_AT_EPOCH":24647,"BSTAR":0.00067993,"MEAN_MOTION_DOT":9.863e-5,"MEAN_MOTION_DDOT":0},{"OBJECT_NAME":"STARLINK-2151","OBJECT_ID":"2021-041D","EPOCH":"2025-11-06T08:45:07.057728","MEAN_MOTION":15.06411776,"ECCENTRICITY":0.0001318,"INCLINATION":53.0562,"RA_OF_ASC_NODE":335.246,"ARG_OF_PERICENTER":92.0432,"MEAN_ANOMALY":268.0708,"EPHEMERIS_TYPE":0,"CLASSIFICATION_TYPE":"U","NORAD_CAT_ID":48556,"ELEMENT_SET_NO":999,"REV_AT_EPOCH":24647,"BSTAR":0.00066646,"MEAN_MOTION_DOT":9.662e-5,"MEAN_MOTION_DDOT":0},{"OBJECT_NAME":"STARLINK-2155","OBJECT_ID":"2021-041E","EPOCH":"2025-11-06T13:38:21.549408","MEAN_MOTION":15.0640772,"ECCENTRICITY":0.0001365,"INCLINATION":53.0547,"RA_OF_ASC_NODE":324.331,"ARG_OF_PERICENTER":93.3634,"MEAN_ANOMALY":266.7511,"EPHEMERIS_TYPE":0,"CLASSIFICATION_TYPE":"U","NORAD_CAT_ID":48557,"ELEMENT_SET_NO":999,"REV_AT_EPOCH":24664,"BSTAR":0.00015224,"MEAN_MOTION_DOT":1.987e-5,"MEAN_MOTION_DDOT":0},{"OBJECT_NAME":"STARLINK-2166","OBJECT_ID":"2021-041F","EPOCH":"2025-11-06T08:46:26.640768","MEAN_MOTION":15.06402245,"ECCENTRICITY":0.0001785,"INCLINATION":53.0571,"RA_OF_ASC_NODE":325.2408,"ARG_OF_PERICENTER":96.1323,"MEAN_ANOMALY":263.987,"EPHEMERIS_TYPE":0,"CLASSIFICATION_TYPE":"U","NORAD_CAT_ID":48558,"ELEMENT_SET_NO":999,"REV_AT_EPOCH":24575,"BSTAR":0.00031476,"MEAN_MOTION_DOT":4.41e-5,"MEAN_MOTION_DDOT":0},{"OBJECT_NAME":"STARLINK-2187","OBJECT_ID":"2021-041K","EPOCH":"2025-11-06T08:14:35.923776","MEAN_MOTION":15.06403875,"ECCENTRICITY":0.0001505,"INCLINATION":53.0546,"RA_OF_ASC_NODE":325.3441,"ARG_OF_PERICENTER":91.3937,"MEAN_ANOMALY":268.7224,"EPHEMERIS_TYPE":0,"CLASSIFICATION_TYPE":"U","NORAD_CAT_ID":48562,"ELEMENT_SET_NO":999,"REV_AT_EPOCH":24661,"BSTAR":0.0003446,"MEAN_MOTION_DOT":4.856e-5,"MEAN_MOTION_DDOT":0},{"OBJECT_NAME":"STARLINK-2188","OBJECT_ID":"2021-041L","EPOCH":"2025-11-06T08:41:08.539296","MEAN_MOTION":15.06426835,"ECCENTRICITY":0.0001519,"INCLINATION":53.0542,"RA_OF_ASC_NODE":325.2575,"ARG_OF_PERICENTER":88.3426,"MEAN_ANOMALY":271.7737,"EPHEMERIS_TYPE":0,"CLASSIFICATION_TYPE":"U","NORAD_CAT_ID":48563,"ELEMENT_SET_NO":999,"REV_AT_EPOCH":24661,"BSTAR":0.00064826,"MEAN_MOTION_DOT":9.394e-5,"MEAN_MOTION_DDOT":0},{"OBJECT_NAME":"STARLINK-2190","OBJECT_ID":"2021-041M","EPOCH":"2025-11-06T08:30:30.902112","MEAN_MOTION":15.06407473,"ECCENTRICITY":0.0001422,"INCLINATION":53.0554,"RA_OF_ASC_NODE":325.2932,"ARG_OF_PERICENTER":96.2441,"MEAN_ANOMALY":263.871,"EPHEMERIS_TYPE":0,"CLASSIFICATION_TYPE":"U","NORAD_CAT_ID":48564,"ELEMENT_SET_NO":999,"REV_AT_EPOCH":24661,"BSTAR":0.00023619,"MEAN_MOTION_DOT":3.239e-5,"MEAN_MOTION_DDOT":0},{"OBJECT_NAME":"STARLINK-2214","OBJECT_ID":"2021-041P","EPOCH":"2025-11-06T08:55:42.913344","MEAN_MOTION":15.06396218,"ECCENTRICITY":0.0001402,"INCLINATION":53.0559,"RA_OF_ASC_NODE":335.1836,"ARG_OF_PERICENTER":86.269,"MEAN_ANOMALY":273.846,"EPHEMERIS_TYPE":0,"CLASSIFICATION_TYPE":"U","NORAD_CAT_ID":48566,"ELEMENT_SET_NO":999,"REV_AT_EPOCH":24647,"BSTAR":-0.00012042,"MEAN_MOTION_DOT":-2.074e-5,"MEAN_MOTION_DDOT":0},{"OBJECT_NAME":"STARLINK-2217","OBJECT_ID":"2021-041R","EPOCH":"2025-11-06T11:09:43.204032","MEAN_MOTION":15.06432902,"ECCENTRICITY":0.0001504,"INCLINATION":53.055,"RA_OF_ASC_NODE":324.7962,"ARG_OF_PERICENTER":90.6421,"MEAN_ANOMALY":269.474,"EPHEMERIS_TYPE":0,"CLASSIFICATION_TYPE":"U","NORAD_CAT_ID":48568,"ELEMENT_SET_NO":999,"REV_AT_EPOCH":24662,"BSTAR":0.0018983,"MEAN_MOTION_DOT":0.00028132,"MEAN_MOTION_DDOT":0}]
